STARLINK-2556
1 28302C 21036AC  21325.14305792  .00001135  00000-0  76079-4 0  3259
2 28302  53.0560 297.5817 0002110  49.4663 250.6055 15.06389756    17
